COSMOS 2251 DEB         
1 36441U 93036BAQ 17345.07349488  .00000491  00000-0  53865-4 0  9997
2 36441  73.8433 121.5544 0169371 110.6563 251.2866 14.81097993436890
